NORAD_CAT_ID,OBJECT_NAME,OBJECT_TYPE,EPOCH,MEAN_MOTION,ECCENTRICITY,INCLINATION,RA_OF_ASC_NODE,ARG_OF_PERICENTER,MEAN_ANOMALY,BSTAR,MEAN_MOTION_DOT,MEAN_MOTION_DDOT,TLE_LINE0,TLE_LINE1,TLE_LINE2,SEMIMAJOR_AXIS,PERIOD,APOGEE,PERIGEE,DECAYED
52337.0,STARLINK-3797,PAYLOAD,2022-10-06 12:03:20,15.08838497,0.0002318,53.2163,61.4233,33.007,327.1066,2.467e-05,1.04e-06,0.0,0 STARLINK-3797,1 52337U 22045G   22279.50232006  .00000104  00000-0  24670-4 0  9991,2 52337  53.2163  61.4233 0002318  33.0070 327.1066 15.08838497 26903,6917.885,95.438,541.354,538.146,0.0
52337.0,STARLINK-3797,PAYLOAD,2022-10-06 16:49:29,15.08845673,0.0002307,53.2164,60.5313,32.821,327.2925,0.00013737,1.899e-05,0.0,0 STARLINK-3797,1 52337U 22045G   22279.70103673  .00001899  00000-0  13737-3 0  9993,2 52337  53.2164  60.5313 0002307  32.8210 327.2925 15.08845673 26936,6917.863,95.437,541.3240000000002,538.132,0.0
52337.0,STARLINK-3797,PAYLOAD,2022-10-07 08:43:20,15.08852803,0.0002225,53.2165,57.5574,34.6325,325.4811,0.00034188,5.159e-05,0.0,0 STARLINK-3797,1 52337U 22045G   22280.36343303  .00005159  00000-0  34188-3 0  9999,2 52337  53.2165  57.5574 0002225  34.6325 325.4811 15.08852803 27037,6917.840999999999,95.437,541.245,538.1669999999998,0.0
52337.0,STARLINK-3797,PAYLOAD,2022-10-07 11:54:06,15.08852546,0.0002186,53.2163,56.9626,35.5728,324.541,0.00032609,4.907e-05,0.0,0 STARLINK-3797,1 52337U 22045G   22280.49591307  .00004907  00000-0  32609-3 0  9998,2 52337  53.2163  56.9626 0002186  35.5728 324.5410 15.08852546 27050,6917.842,95.437,541.219,538.195,0.0
52337.0,STARLINK-3797,PAYLOAD,2022-10-07 13:29:30,15.08852724,0.0002201,53.2164,56.6652,35.7017,324.4122,0.00032721,4.925e-05,0.0,0 STARLINK-3797,1 52337U 22045G   22280.56215296  .00004925  00000-0  32721-3 0  9991,2 52337  53.2164  56.6652 0002201  35.7017 324.4122 15.08852724 27066,6917.840999999999,95.437,541.229,538.184,0.0
52337.0,STARLINK-3797,PAYLOAD,2022-10-08 03:47:58,15.08839991,0.0002198,53.2163,53.9891,36.3271,323.7870000000001,3.4854e-05,2.66e-06,0.0,0 STARLINK-3797,1 52337U 22045G   22281.15831648  .00000266  00000-0  34854-4 0  9996,2 52337  53.2163  53.9891 0002198  36.3271 323.7870 15.08839991 27157,6917.88,95.438,541.266,538.225,0.0
52337.0,STARLINK-3797,PAYLOAD,2022-10-08 10:09:32,15.08829616,0.0002064,53.2173,52.7989,37.2363,322.8772,6.2277e-05,7.03e-06,0.0,0 STARLINK-3797,1 52337U 22045G   22281.42328743  .00000703  00000-0  62277-4 0  9999,2 52337  53.2173  52.7989 0002064  37.2363 322.8772 15.08829616 27195,6917.9119999999975,95.438,541.205,538.349,0.0
52337.0,STARLINK-3797,PAYLOAD,2022-10-08 13:20:17,15.08834118,0.000207,53.2173,52.20399999999999,38.0762,322.0376,8.761e-05,1.106e-05,0.0,0 STARLINK-3797,1 52337U 22045G   22281.55576375  .00001106  00000-0  87610-4 0  9995,2 52337  53.2173  52.2040 0002070  38.0762 322.0376 15.08834118 27215,6917.898,95.438,541.195,538.331,0.0
52337.0,STARLINK-3797,PAYLOAD,2022-10-08 16:31:04,15.08839753,0.0002163,53.2173,51.6095,35.1645,324.9489,0.00010471,1.379e-05,0.0,0 STARLINK-3797,1 52337U 22045G   22281.68824105  .00001379  00000-0  10471-3 0  9998,2 52337  53.2173  51.6095 0002163  35.1645 324.9489 15.08839753 27237,6917.880999999999,95.438,541.242,538.25,0.0
52337.0,STARLINK-3797,PAYLOAD,2022-10-09 13:11:04,15.08843537,0.0002432,53.2176,47.7443,32.073,328.041,2.0061e-05,3.1e-07,0.0,0 STARLINK-3797,1 52337U 22045G   22282.54936018  .00000031  00000-0  20061-4 0  9992,2 52337  53.2176  47.7443 0002432  32.0730 328.0410 15.08843537 27361,6917.87,95.437,541.4169999999998,538.052,0.0
52337.0,STARLINK-3797,PAYLOAD,2022-10-09 14:46:27,15.08846226,0.0002338,53.2173,47.4465,34.1433,325.9709,4.818100000000001e-05,4.79e-06,0.0,0 STARLINK-3797,1 52337U 22045G   22282.61559773  .00000479  00000-0  48181-4 0  9998,2 52337  53.2173  47.4465 0002338  34.1433 325.9709 15.08846226 27373,6917.861,95.437,541.344,538.109,0.0
52337.0,STARLINK-3797,PAYLOAD,2022-10-10 03:29:32,15.08850812,0.0002283,53.2168,45.0672,34.9056,325.2085,0.00040608,6.182e-05,0.0,0 STARLINK-3797,1 52337U 22045G   22283.14551504  .00006182  00000-0  40608-3 0  9993,2 52337  53.2168  45.0672 0002283  34.9056 325.2085 15.08850812 27454,6917.847,95.437,541.2919999999998,538.133,0.0
52337.0,STARLINK-3797,PAYLOAD,2022-10-10 11:26:28,15.08840438,0.0002072,53.2169,43.5805,32.8519,327.2601,0.0002044,2.966e-05,0.0,0 STARLINK-3797,1 52337U 22045G   22283.47671941  .00002966  00000-0  20440-3 0  9995,2 52337  53.2169  43.5805 0002072  32.8519 327.2601 15.08840438 27508,6917.879,95.438,541.177,538.311,0.0
52337.0,STARLINK-3797,PAYLOAD,2022-10-10 17:48:00,15.08851898,0.0002334,53.2171,42.3913,30.2735,329.8392,0.00030861,4.628e-05,0.0,0 STARLINK-3797,1 52337U 22045G   22283.74167417  .00004628  00000-0  30861-3 0  9998,2 52337  53.2171  42.3913 0002334  30.2735 329.8392 15.08851898 27542,6917.844,95.437,541.3240000000002,538.094,0.0
52337.0,STARLINK-3797,PAYLOAD,2022-10-11 11:17:16,15.08824725,0.0002342,53.2163,39.1192,31.2094,328.9037,-0.00025871,-4.402e-05,0.0,0 STARLINK-3797,1 52337U 22045G   22284.47032706 -.00004402  00000-0 -25871-3 0  9998,2 52337  53.2163  39.1192 0002342  31.2094 328.9037 15.08824725 27651,6917.927,95.439,541.4119999999998,538.172,0.0
52337.0,STARLINK-3797,PAYLOAD,2022-10-11 17:38:49,15.08816132,0.0002417,53.2167,37.9312,30.2944,329.8188,-0.00024252,-4.144e-05,0.0,0 STARLINK-3797,1 52337U 22045G   22284.73529425 -.00004144  00000-0 -24252-3 0  9991,2 52337  53.2167  37.9312 0002417  30.2944 329.8188 15.08816132 27695,6917.953,95.439,541.49,538.146,0.0
52337.0,STARLINK-3797,PAYLOAD,2022-10-12 14:18:50,15.08827332,0.0002457,53.2174,34.0658,27.0502,333.0618,1.3347e-05,-7.6e-07,0.0,0 STARLINK-3797,1 52337U 22045G   22285.59641636 -.00000076  00000-0  13347-4 0  9998,2 52337  53.2174  34.0658 0002457  27.0502 333.0618 15.08827332 27826,6917.919,95.438,541.484,538.0840000000002,0.0
52337.0,STARLINK-3797,PAYLOAD,2022-10-12 15:54:13,15.08830561,0.0002435999999999,53.2173,33.7682,27.9895,332.1228,4.128e-05,3.69e-06,0.0,0 STARLINK-3797,1 52337U 22045G   22285.66265548  .00000369  00000-0  41280-4 0  9991,2 52337  53.2173  33.7682 0002436  27.9895 332.1228 15.08830561 27835,6917.909000000002,95.438,541.4590000000002,538.089,0.0
52337.0,STARLINK-3797,PAYLOAD,2022-10-13 10:58:51,15.08836983,0.0002593999999999,53.2173,30.2004,25.2862,334.8257,0.0003246,4.881e-05,0.0,0 STARLINK-3797,1 52337U 22045G   22286.45753994  .00004881  00000-0  32460-3 0  9998,2 52337  53.2173  30.2004 0002594  25.2862 334.8257 15.08836983 27953,6917.89,95.438,541.549,537.96,0.0
52337.0,STARLINK-3797,PAYLOAD,2022-10-14 04:28:05,15.08848726,0.0002566,53.217,26.9296,27.2226,332.89,0.0003505,5.296e-05,0.0,0 STARLINK-3797,1 52337U 22045G   22287.18617589  .00005296  00000-0  35050-3 0  9997,2 52337  53.2170  26.9296 0002566  27.2226 332.8900 15.08848726 28064,6917.854,95.437,541.494,537.944,0.0
52337.0,STARLINK-3797,PAYLOAD,2022-10-14 12:25:01,15.08845333,0.0002497,53.2169,25.4426,28.5288,331.584,0.00020218,2.931e-05,0.0,0 STARLINK-3797,1 52337U 22045G   22287.51737607  .00002931  00000-0  20218-3 0  9991,2 52337  53.2169  25.4426 0002497  28.5288 331.5840 15.08845333 28112,6917.864000000001,95.437,541.456,538.002,0.0
52337.0,STARLINK-3797,PAYLOAD,2022-10-15 12:15:47,15.08853812,0.0002748,53.217,20.9834,23.5646,336.5472,0.00043025,6.568e-05,0.0,0 STARLINK-3797,1 52337U 22045G   22288.51096936  .00006568  00000-0  43025-3 0  9996,2 52337  53.2170  20.9834 0002748  23.5646 336.5472 15.08853812 28262,6917.8380000000025,95.437,541.604,537.802,0.0
52337.0,STARLINK-3797,PAYLOAD,2022-10-15 15:26:33,15.08859751,0.0002573999999999,53.2168,20.3884,24.142,335.9692,0.00067288,0.00010443,0.0,0 STARLINK-3797,1 52337U 22045G   22288.64344605  .00010443  00000-0  67288-3 0  9993,2 52337  53.2168  20.3884 0002574  24.1420 335.9692 15.08859751 28289,6917.82,95.436,541.466,537.904,0.0
52337.0,STARLINK-3797,PAYLOAD,2022-10-16 04:09:38,15.08826386,0.000268,53.2166,18.0098,23.7433,336.3682,-0.00086089,-0.00013959,0.0,0 STARLINK-3797,1 52337U 22045G   22289.17336746 -.00013959  00000-0 -86089-3 0  9996,2 52337  53.2166  18.0098 0002680  23.7433 336.3682 15.08826386 28366,6917.922,95.438,541.641,537.933,0.0
52337.0,STARLINK-3797,PAYLOAD,2022-10-16 12:06:34,15.08824645,0.0002596,53.2166,16.5228,26.9607,333.152,-0.00047872,-7.896e-05,0.0,0 STARLINK-3797,1 52337U 22045G   22289.50457097 -.00007896  00000-0 -47872-3 0  9996,2 52337  53.2166  16.5228 0002596  26.9607 333.1520 15.08824645 28416,6917.927,95.439,541.5880000000002,537.996,0.0
52337.0,STARLINK-3797,PAYLOAD,2022-10-16 15:17:21,15.08817624,0.0002715,53.2163,15.9285,26.622,333.4911,0.00034939,5.273e-05,0.0,0 STARLINK-3797,1 52337U 22045G   22289.63705446  .00005273  00000-0  34939-3 0  9999,2 52337  53.2163  15.9285 0002715  26.6220 333.4911 15.08817624 28438,6917.949000000001,95.439,541.692,537.936,0.0
52337.0,STARLINK-3797,PAYLOAD,2022-10-16 23:14:17,15.08830903,0.0002538,53.2165,14.4413,26.9928,333.1196,0.00070191,0.00010898,0.0,0 STARLINK-3797,1 52337U 22045G   22289.96825595  .00010898  00000-0  70191-3 0  9992,2 52337  53.2165  14.4413 0002538  26.9928 333.1196 15.08830903 28480,6917.908,95.438,541.529,538.0169999999998,0.0
52337.0,STARLINK-3797,PAYLOAD,2022-10-17 11:57:22,15.08847711,0.000275,53.2168,12.0624,30.1458,329.9692,0.0011346,0.0001781999999999,0.0,0 STARLINK-3797,1 52337U 22045G   22290.49817818  .00017820  00000-0  11346-2 0  9999,2 52337  53.2168  12.0624 0002750  30.1458 329.9692 15.08847711 28560,6917.857,95.437,541.624,537.819,0.0
52337.0,STARLINK-3797,PAYLOAD,2022-10-18 08:37:23,15.08840654,0.0002918,53.2173,8.1972,22.7148,337.3973,0.00035226,5.323e-05,0.0,0 STARLINK-3797,1 52337U 22045G   22291.35930191  .00005323  00000-0  35226-3 0  9994,2 52337  53.2173   8.1972 0002918  22.7148 337.3973 15.08840654 28695,6917.878000000002,95.438,541.762,537.725,0.0
